SHIJIAN-6 05A (SJ-6 05A)
1 49961U 21122A   26068.88345882  .00003299  00000+0  27617-3 0  9993
2 49961  97.4012  42.3306 0003221  76.6317 283.5266 14.99085264233873
STARLINK-33968          
1 63883U 25094V   26068.85530523  .00003779  00000+0  32433-3 0  9994
2 63883  70.0024 234.2086 0003008 268.4679  91.6135 14.98334370 47223
